[{"OBJECT_NAME":"OBJECT B","OBJECT_ID":"2024-203B","EPOCH":"2026-03-09T23:52:52.928256","MEAN_MOTION":15.27506959,"ECCENTRICITY":0.00103904,"INCLINATION":97.4268,"RA_OF_ASC_NODE":139.5887,"ARG_OF_PERICENTER":321.1475,"MEAN_ANOMALY":38.9016,"EPHEMERIS_TYPE":0,"CLASSIFICATION_TYPE":"U","NORAD_CAT_ID":61870,"ELEMENT_SET_NO":999,"REV_AT_EPOCH":7381,"BSTAR":0.00063263842,"MEAN_MOTION_DOT":0.00016997,"MEAN_MOTION_DDOT":0},{"OBJECT_NAME":"STARLINK-36041","OBJECT_ID":"2025-278H","EPOCH":"2026-03-09T03:34:52.481856","MEAN_MOTION":15.27568603,"ECCENTRICITY":0.00010371,"INCLINATION":42.9985,"RA_OF_ASC_NODE":117.6592,"ARG_OF_PERICENTER":258.8643,"MEAN_ANOMALY":101.2092,"EPHEMERIS_TYPE":0,"CLASSIFICATION_TYPE":"U","NORAD_CAT_ID":66798,"ELEMENT_SET_NO":999,"REV_AT_EPOCH":1512,"BSTAR":0.0012472554,"MEAN_MOTION_DOT":0.00034207,"MEAN_MOTION_DDOT":0}]
